OBJECT_NAME,OBJECT_ID,EPOCH,MEAN_MOTION,ECCENTRICITY,INCLINATION,RA_OF_ASC_NODE,ARG_OF_PERICENTER,MEAN_ANOMALY,EPHEMERIS_TYPE,CLASSIFICATION_TYPE,NORAD_CAT_ID,ELEMENT_SET_NO,REV_AT_EPOCH,BSTAR,MEAN_MOTION_DOT,MEAN_MOTION_DDOT
IRIDIUM 135,2017-083A,2026-06-07T04:11:31.184736,14.34217503,.00020991,86.3956,326.2029,91.0992,269.0444,0,U,43070,999,44271,-.12511421E-4,-.15E-6,0
IRIDIUM 138,2017-083B,2026-06-07T04:48:03.246912,14.34217689,.00024097,86.3972,325.8861,89.0490,271.0982,0,U,43071,999,44270,.83836083E-4,.255E-5,0
IRIDIUM 116,2017-083C,2026-06-07T04:02:23.097696,14.34217644,.00018758,86.3956,326.1910,93.1118,267.0293,0,U,43072,999,44273,.80389655E-4,.245E-5,0
IRIDIUM 130,2017-083D,2026-06-07T04:57:11.132640,14.34217734,.00019981,86.3966,326.4501,87.1530,272.9894,0,U,43073,999,44268,.79331421E-4,.242E-5,0
IRIDIUM 151,2017-083E,2026-06-07T04:20:39.136128,14.34218009,.00021107,86.3958,326.2437,92.0346,268.1092,0,U,43074,999,44270,.51845805E-4,.165E-5,0
IRIDIUM 134,2017-083F,2026-06-07T00:14:03.156864,14.34218265,.00020858,86.3962,326.3232,87.9738,272.1696,0,U,43075,999,44264,.20539362E-4,.77E-6,0
IRIDIUM 137,2017-083G,2026-06-07T03:53:15.103968,14.34217614,.00019566,86.3960,326.3517,100.6324,259.5092,0,U,43076,999,44273,.29917602E-4,.104E-5,0
IRIDIUM 141,2017-083H,2026-06-07T05:24:35.203680,14.34217085,.00020903,86.3953,326.1569,90.5781,269.5654,0,U,43077,999,44274,-.18980448E-4,-.33E-6,0
IRIDIUM 153,2017-083J,2026-06-07T02:35:15.473472,14.34217682,.00023635,86.3955,294.6859,90.6401,269.5066,0,U,43078,999,44383,.6402808E-5,.38E-6,0
IRIDIUM 131,2017-083K,2026-06-07T05:06:19.134144,14.34217400,.0002091,86.3959,326.3475,92.1024,268.0412,0,U,43079,999,44267,-.2020537E-4,-.37E-6,0
IRIDIUM 144,2018-030A,2026-06-06T03:17:51.347904,14.34217715,.00020333,86.3951,295.0216,96.9096,263.2331,0,U,43249,999,42855,.3648966E-4,.122E-5,0
IRIDIUM 149,2018-030B,2026-06-07T02:53:31.447968,14.34217774,.00022603,86.3950,294.5773,93.1733,266.9721,0,U,43250,999,42871,.12132407E-4,.54E-6,0
IRIDIUM 157,2018-030C,2026-06-07T03:20:55.431744,14.34217494,.00020876,86.3949,294.6223,93.5449,266.5986,0,U,43251,999,42869,-.1736411E-5,.15E-6,0
IRIDIUM 140,2018-030D,2026-06-07T02:07:51.423168,14.34217704,.000216,86.3952,294.6559,92.0767,268.0676,0,U,43252,999,42874,.7988448E-5,.42E-6,0
IRIDIUM 145,2018-030E,2026-06-07T01:49:35.319072,14.34217502,.00018383,86.3949,294.6335,96.4113,263.7292,0,U,43253,999,42867,.2175629E-4,.81E-6,0
IRIDIUM 146,2018-030F,2026-06-07T03:02:39.421824,14.34217403,.00019721,86.3948,294.6247,94.8367,265.3054,0,U,43254,999,42869,-.4554041E-5,.7E-7,0
IRIDIUM 148,2018-030G,2026-06-07T02:16:59.356416,14.34217490,.00020752,86.3950,294.6809,97.2182,262.9250,0,U,43255,999,42872,-.7908462E-5,-.2E-7,0
IRIDIUM 142,2018-030H,2026-06-07T03:11:47.386176,14.34217626,.00020367,86.3949,294.5542,96.0806,264.0622,0,U,43256,999,42869,.903511E-5,.45E-6,0
IRIDIUM 150,2018-030J,2026-06-07T02:26:07.443456,14.34217652,.0002157,86.3953,294.6836,91.8546,268.2896,0,U,43257,999,42871,.7852336E-5,.42E-6,0
IRIDIUM 143,2018-030K,2026-06-07T01:58:43.441536,14.34217539,.00020964,86.3956,294.7836,93.8419,266.3017,0,U,43258,999,42864,.5932294E-5,.36E-6,0
IRIDIUM 161,2018-047C,2026-06-06T13:28:22.787040,14.43276640,.000258,86.4485,92.9125,91.0419,269.1078,0,U,43478,999,42360,.99146E-4,.354E-5,0
IRIDIUM 152,2018-047D,2026-06-06T13:36:10.307808,14.34217770,.0002373,86.3954,92.7724,84.4621,275.6845,0,U,43479,999,42096,.98434E-5,.47E-6,0
IRIDIUM 147,2018-047E,2026-06-07T01:28:34.260960,14.34216854,.00020389,86.3957,92.5705,84.7713,275.3716,0,U,43480,999,42103,-.7478906E-5,-.1E-7,0
IRIDIUM 110,2018-047F,2026-06-06T13:54:26.325504,14.34217776,.00025821,86.3957,92.8635,87.4635,272.6856,0,U,43481,999,42095,.7507283E-5,.41E-6,0
IRIDIUM 162,2018-047G,2026-06-07T02:38:00.115584,14.43275965,.00023567,86.4478,92.5756,83.4962,276.6508,0,U,43482,999,42367,.97200469E-4,.347E-5,0
IRIDIUM 160,2018-061A,2026-06-07T00:19:42.479904,14.34217921,.00022716,86.3969,61.0508,86.6981,273.4475,0,U,43569,999,41191,.12024037E-4,.53E-6,0
IRIDIUM 166,2018-061B,2026-06-06T23:15:46.448640,14.34217648,.00019657,86.3964,61.0196,83.7859,276.3560,0,U,43570,999,41193,-.156151E-6,.19E-6,0
IRIDIUM 158,2018-061C,2026-06-07T00:10:34.461984,14.34217101,.00022961,86.3966,61.0142,83.1388,277.0069,0,U,43571,999,41190,.2838092E-4,.99E-6,0
IRIDIUM 165,2018-061D,2026-06-06T23:06:37.926144,14.34214543,.00019801,86.3974,61.0781,87.4622,272.6801,0,U,43572,999,41192,.78380291E-4,.239E-5,0
IRIDIUM 155,2018-061E,2026-06-06T15:29:58.492032,14.34217719,.00021874,86.3963,61.0804,81.3669,278.7774,0,U,43573,999,41184,.5820088E-5,.36E-6,0
